OBJECT_NAME,OBJECT_ID,EPOCH,MEAN_MOTION,ECCENTRICITY,INCLINATION,RA_OF_ASC_NODE,ARG_OF_PERICENTER,MEAN_ANOMALY,EPHEMERIS_TYPE,CLASSIFICATION_TYPE,NORAD_CAT_ID,ELEMENT_SET_NO,REV_AT_EPOCH,BSTAR,MEAN_MOTION_DOT,MEAN_MOTION_DDOT
STARLINK-37601,2026-127H,2026-06-17T20:00:01.999008,15.81140308,.0000768,53.1591,259.1372,75.9546,67.2376,0,U,69450,999,274,-.40729E-2,-.747655E-2,0
STARLINK-37578,2026-127J,2026-06-17T20:00:01.999008,15.80890049,.0000644,53.1588,259.1225,78.8423,71.3925,0,U,69451,999,274,-.20198E-3,-.40406E-3,0
STARLINK-37577,2026-127K,2026-06-17T20:00:01.999008,15.80871944,.0001127,53.1589,259.1074,61.9770,95.5508,0,U,69452,999,274,.59363E-4,.11032E-3,0
STARLINK-37500,2026-127L,2026-06-17T20:00:01.999008,15.80858001,.0001224,53.1589,259.0742,55.9953,117.6846,0,U,69453,999,274,.94557E-4,.17989E-3,0
STARLINK-37575,2026-127M,2026-06-17T20:00:01.999008,15.80855247,.000082,53.1590,259.0710,51.5321,123.4231,0,U,69454,999,274,.30791E-3,.60449E-3,0
STARLINK-37642,2026-127N,2026-06-17T20:00:01.999008,15.81816465,.0001276,53.1591,259.0219,59.5971,139.0481,0,U,69455,999,274,-.6614E-2,-.1211945E-1,0
STARLINK-37513,2026-127P,2026-06-17T20:00:01.999008,15.82945589,.0001188,53.1588,258.9800,69.9229,148.8528,0,U,69456,999,274,-.10676E-1,-.2010991E-1,0
STARLINK-37563,2026-127Q,2026-06-17T20:00:01.999008,15.84262523,.0001188,53.1586,258.9560,76.8167,153.6171,0,U,69457,999,274,-.96354E-2,-.1944003E-1,0
STARLINK-37565,2026-127R,2026-06-17T20:00:01.999008,15.83326839,.0001131,53.1587,258.9596,75.9251,152.6697,0,U,69458,999,274,-.9855E-2,-.1906282E-1,0
STARLINK-37498,2026-127S,2026-06-17T20:00:01.999008,15.82848737,.00011,53.1587,258.9542,62.4699,168.7532,0,U,69459,999,274,-.1179E-1,-.2179824E-1,0
STARLINK-37384,2026-127T,2026-06-17T20:00:01.999008,15.83154675,.0001197,53.1587,258.9319,78.0953,163.7459,0,U,69460,999,274,-.11147E-1,-.2104677E-1,0
STARLINK-37707,2026-127U,2026-06-17T20:00:01.999008,15.85836983,.0001125,53.1581,258.8834,81.2408,184.1603,0,U,69461,999,274,-.93583E-2,-.202576E-1,0
STARLINK-37525,2026-127V,2026-06-17T20:00:01.999008,15.84896465,.0001094,53.1583,258.8742,77.7782,191.8779,0,U,69462,999,274,-.95416E-2,-.1979601E-1,0
STARLINK-37526,2026-127W,2026-06-17T20:00:01.999008,15.84646124,.0001111,53.1584,258.8644,73.9103,200.4033,0,U,69463,999,274,-.10379E-1,-.2105807E-1,0
STARLINK-37574,2026-127X,2026-06-17T20:00:01.999008,15.86942453,.0000918,53.1576,258.8041,64.3019,239.1241,0,U,69464,999,274,-.80301E-2,-.1819102E-1,0
STARLINK-37535,2026-127Y,2026-06-17T20:00:01.999008,15.85581927,.0000777,53.1579,258.8114,64.6454,235.1772,0,U,69465,999,274,-.10034E-1,-.2126992E-1,0
STARLINK-37583,2026-127Z,2026-06-17T20:00:01.999008,15.88426445,.0000765,53.1572,258.7153,60.2851,285.6854,0,U,69466,999,274,-.79642E-2,-.1970064E-1,0
STARLINK-37546,2026-127AA,2026-06-17T20:00:01.999008,15.88955345,.0000841,53.1569,258.6962,63.1162,291.8936,0,U,69467,999,274,-.72439E-2,-.1816733E-1,0
STARLINK-37532,2026-127AB,2026-06-17T20:00:01.999008,15.88158839,.0000778,53.1570,258.6958,60.9680,294.1853,0,U,69468,999,274,-.86184E-2,-.2084491E-1,0
STARLINK-37708,2026-127AC,2026-06-17T20:00:01.999008,15.88358406,.0000973,53.1566,258.6827,68.8537,292.4673,0,U,69469,999,274,-.83828E-2,-.2053395E-1,0
STARLINK-37686,2026-127AD,2026-06-17T20:00:01.999008,15.88810884,.0000797,53.1566,258.6641,57.7032,312.5429,0,U,69470,999,274,-.80951E-2,-.2032123E-1,0
STARLINK-37451,2026-127AE,2026-06-17T20:00:01.999008,15.88756853,.0001108,53.1565,258.6496,60.6262,316.5775,0,U,69471,999,274,-.36462E-2,-.946773E-2,0
DTC TEST OBJECT A,2026-128A,2026-06-17T19:27:15.198912,15.55862139,.0008522,54.9944,302.1495,291.7643,68.2485,0,U,69472,999,132,.31795E-3,.21974E-3,0
DTC TEST OBJECT B,2026-128B,2026-06-17T14:47:09.684384,15.56312305,.0008548,55.0033,303.0351,291.7554,68.2571,0,U,69473,999,128,.37059E-3,.26145E-3,0
TJS-25,2026-129A,2026-06-11T11:34:53.014656,1.72502163,.7751889,16.5302,30.5351,199.9639,91.9387,0,U,69474,999,7,.19774E-2,.7407E-4,0
STARLINK-37816,2026-131A,2026-06-17T18:00:02.998944,15.96316495,.0001149,97.2824,188.9762,80.4448,35.9636,0,U,69478,999,210,-.26551E-2,-.1093379E-1,.37146E-3
STARLINK-37817,2026-131C,2026-06-17T18:00:02.998944,15.96547425,.0001181,97.2822,188.9776,77.8521,42.4103,0,U,69480,999,210,-.26268E-2,-.1095329E-1,.3736E-3
STARLINK-37727,2026-131D,2026-06-17T18:00:02.998944,15.96671350,.0001175,97.2819,188.9784,76.6396,45.7078,0,U,69481,999,210,-.26175E-2,-.1098784E-1,.37629E-3
STARLINK-37814,2026-131E,2026-06-17T18:00:02.998944,15.96778578,.0001181,97.2821,188.9793,77.2384,46.9070,0,U,69482,999,210,-.26031E-2,-.1099082E-1,.37691E-3
STARLINK-37869,2026-131F,2026-06-17T18:00:02.998944,15.96910777,.0001149,97.2820,188.9802,76.2430,50.1342,0,U,69483,999,210,-.26036E-2,-.1107172E-1,.38261E-3
