STARLINK-37601          
1 69450U 26127H   26168.83335647 -.00747655  00000+0 -40729-2 0  9993
2 69450  53.1591 259.1372 0000768  75.9546  67.2376 15.81140308  2741
STARLINK-37578          
1 69451U 26127J   26168.83335647 -.00040406  00000+0 -20198-3 0  9993
2 69451  53.1588 259.1225 0000644  78.8423  71.3925 15.80890049  2743
STARLINK-37577          
1 69452U 26127K   26168.83335647  .00011032  00000+0  59363-4 0  9992
2 69452  53.1589 259.1074 0001127  61.9770  95.5508 15.80871944  2740
STARLINK-37500          
1 69453U 26127L   26168.83335647  .00017989  00000+0  94557-4 0  9994
2 69453  53.1589 259.0742 0001224  55.9953 117.6846 15.80858001  2746
STARLINK-37575          
1 69454U 26127M   26168.83335647  .00060449  00000+0  30791-3 0  9993
2 69454  53.1590 259.0710 0000820  51.5321 123.4231 15.80855247  2748
STARLINK-37642          
1 69455U 26127N   26168.83335647 -.01211945  00000+0 -66140-2 0  9992
2 69455  53.1591 259.0219 0001276  59.5971 139.0481 15.81816465  2749
STARLINK-37513          
1 69456U 26127P   26168.83335647 -.02010991  00000+0 -10676-1 0  9994
2 69456  53.1588 258.9800 0001188  69.9229 148.8528 15.82945589  2744
STARLINK-37563          
1 69457U 26127Q   26168.83335647 -.01944003  00000+0 -96354-2 0  9992
2 69457  53.1586 258.9560 0001188  76.8167 153.6171 15.84262523  2744
STARLINK-37565          
1 69458U 26127R   26168.83335647 -.01906282  00000+0 -98550-2 0  9990
2 69458  53.1587 258.9596 0001131  75.9251 152.6697 15.83326839  2749
STARLINK-37498          
1 69459U 26127S   26168.83335647 -.02179824  00000+0 -11790-1 0  9996
2 69459  53.1587 258.9542 0001100  62.4699 168.7532 15.82848737  2745
STARLINK-37384          
1 69460U 26127T   26168.83335647 -.02104677  00000+0 -11147-1 0  9998
2 69460  53.1587 258.9319 0001197  78.0953 163.7459 15.83154675  2746
STARLINK-37707          
1 69461U 26127U   26168.83335647 -.02025760  00000+0 -93583-2 0  9999
2 69461  53.1581 258.8834 0001125  81.2408 184.1603 15.85836983  2743
STARLINK-37525          
1 69462U 26127V   26168.83335647 -.01979601  00000+0 -95416-2 0  9998
2 69462  53.1583 258.8742 0001094  77.7782 191.8779 15.84896465  2743
STARLINK-37526          
1 69463U 26127W   26168.83335647 -.02105807  00000+0 -10379-1 0  9993
2 69463  53.1584 258.8644 0001111  73.9103 200.4033 15.84646124  2746
STARLINK-37574          
1 69464U 26127X   26168.83335647 -.01819102  00000+0 -80301-2 0  9996
2 69464  53.1576 258.8041 0000918  64.3019 239.1241 15.86942453  2749
STARLINK-37535          
1 69465U 26127Y   26168.83335647 -.02126992  00000+0 -10034-1 0  9991
2 69465  53.1579 258.8114 0000777  64.6454 235.1772 15.85581927  2742
STARLINK-37583          
1 69466U 26127Z   26168.83335647 -.01970064  00000+0 -79642-2 0  9999
2 69466  53.1572 258.7153 0000765  60.2851 285.6854 15.88426445  2745
STARLINK-37546          
1 69467U 26127AA  26168.83335647 -.01816733  00000+0 -72439-2 0  9999
2 69467  53.1569 258.6962 0000841  63.1162 291.8936 15.88955345  2747
STARLINK-37532          
1 69468U 26127AB  26168.83335647 -.02084491  00000+0 -86184-2 0  9991
2 69468  53.1570 258.6958 0000778  60.9680 294.1853 15.88158839  2741
STARLINK-37708          
1 69469U 26127AC  26168.83335647 -.02053395  00000+0 -83828-2 0  9993
2 69469  53.1566 258.6827 0000973  68.8537 292.4673 15.88358406  2740
STARLINK-37686          
1 69470U 26127AD  26168.83335647 -.02032123  00000+0 -80951-2 0  9995
2 69470  53.1566 258.6641 0000797  57.7032 312.5429 15.88810884  2743
STARLINK-37451          
1 69471U 26127AE  26168.83335647 -.00946773  00000+0 -36462-2 0  9997
2 69471  53.1565 258.6496 0001108  60.6262 316.5775 15.88756853  2749
DTC TEST OBJECT A       
1 69472U 26128A   26168.81059258  .00021974  00000+0  31795-3 0  9998
2 69472  54.9944 302.1495 0008522 291.7643  68.2485 15.55862139  1322
DTC TEST OBJECT B       
1 69473U 26128B   26168.61608431  .00026145  00000+0  37059-3 0  9994
2 69473  55.0033 303.0351 0008548 291.7554  68.2571 15.56312305  1281
TJS-25                  
1 69474U 26129A   26162.48255804  .00007407  00000+0  19774-2 0  9990
2 69474  16.5302  30.5351 7751889 199.9639  91.9387  1.72502163    78
STARLINK-37816          
1 69478U 26131A   26168.75003471 -.01093379  37146-3 -26551-2 0  9996
2 69478  97.2824 188.9762 0001149  80.4448  35.9636 15.96316495  2106
STARLINK-37817          
1 69480U 26131C   26168.75003471 -.01095329  37360-3 -26268-2 0  9999
2 69480  97.2822 188.9776 0001181  77.8521  42.4103 15.96547425  2101
STARLINK-37727          
1 69481U 26131D   26168.75003471 -.01098784  37629-3 -26175-2 0  9993
2 69481  97.2819 188.9784 0001175  76.6396  45.7078 15.96671350  2109
STARLINK-37814          
1 69482U 26131E   26168.75003471 -.01099082  37691-3 -26031-2 0  9996
2 69482  97.2821 188.9793 0001181  77.2384  46.9070 15.96778578  2109
STARLINK-37869          
1 69483U 26131F   26168.75003471 -.01107172  38261-3 -26036-2 0  9996
2 69483  97.2820 188.9802 0001149  76.2430  50.1342 15.96910777  2103
